[{"OBJECT_NAME":"STARLINK-3078","OBJECT_ID":"2021-082E","EPOCH":"2026-03-09T22:02:30.521184","MEAN_MOTION":14.98354201,"ECCENTRICITY":0.00027779,"INCLINATION":69.9988,"RA_OF_ASC_NODE":293.883,"ARG_OF_PERICENTER":269.5182,"MEAN_ANOMALY":90.5658,"EPHEMERIS_TYPE":0,"CLASSIFICATION_TYPE":"U","NORAD_CAT_ID":49134,"ELEMENT_SET_NO":999,"REV_AT_EPOCH":24721,"BSTAR":-0.00042795452,"MEAN_MOTION_DOT":-5.199e-5,"MEAN_MOTION_DDOT":0},{"OBJECT_NAME":"CZ-4B DEB","OBJECT_ID":"1999-057HN","EPOCH":"2026-03-09T18:25:21.450432","MEAN_MOTION":14.85566097,"ECCENTRICITY":0.00485224,"INCLINATION":98.2919,"RA_OF_ASC_NODE":162.1261,"ARG_OF_PERICENTER":121.345,"MEAN_ANOMALY":0.0093,"EPHEMERIS_TYPE":0,"CLASSIFICATION_TYPE":"U","NORAD_CAT_ID":26329,"ELEMENT_SET_NO":999,"REV_AT_EPOCH":37257,"BSTAR":0.0017246939,"MEAN_MOTION_DOT":0.000152,"MEAN_MOTION_DDOT":0}]
